{
  "type": "FeatureCollection",
  "features": [
    {
      "type": "Feature",
      "properties": {
        "norad_id": 40545,
        "name": "GSAT0204 (GALILEO 8)",
        "group": "gnss",
        "lat": 39.69164879505644,
        "lon": 133.5866050500596,
        "alt_km": 23230.382725613712,
        "timestamp": "2025-12-21T22:41:41.703487+00:00",
        "meta_object_name": "GSAT0204 (GALILEO 8)",
        "meta_object_id": "2015-017B",
        "meta_epoch": "2025-12-20T13:26:28.826304",
        "meta_mean_motion": 1.70475697,
        "meta_eccentricity": 0.0006133,
        "meta_inclination": 56.8522,
        "meta_ra_of_asc_node": 346.4847,
        "meta_arg_of_pericenter": 266.5447,
        "meta_mean_anomaly": 93.3948,
        "meta_ephemeris_type": 0,
        "meta_classification_type": "U",
        "meta_norad_cat_id": 40545,
        "meta_element_set_no": 999,
        "meta_rev_at_epoch": 2920,
        "meta_bstar": 0,
        "meta_mean_motion_dot": -7e-07,
        "meta_mean_motion_ddot": 0,
        "tle_line1": "1 40545U 15017B   25354.56005586 -.00000070  00000+0  00000+0 0  9992",
        "tle_line2": "2 40545  56.8522 346.4847 0006133 266.5447  93.3948  1.70475697 29206"
      },
      "geometry": {
        "type": "Point",
        "coordinates": [
          133.5866050500596,
          39.69164879505644
        ]
      }
    },
    {
      "type": "Feature",
      "properties": {
        "norad_id": 40549,
        "name": "BEIDOU-3S IGSO-1S (C31)",
        "group": "gnss",
        "lat": -34.71804769883402,
        "lon": 153.74903825191066,
        "alt_km": 35659.09587121165,
        "timestamp": "2025-12-21T22:41:41.703501+00:00",
        "meta_object_name": "BEIDOU-3S IGSO-1S (C31)",
        "meta_object_id": "2015-019A",
        "meta_epoch": "2025-12-18T19:55:38.829792",
        "meta_mean_motion": 1.00292047,
        "meta_eccentricity": 0.0036331,
        "meta_inclination": 49.5404,
        "meta_ra_of_asc_node": 297.6395,
        "meta_arg_of_pericenter": 194.0028,
        "meta_mean_anomaly": 349.3621,
        "meta_ephemeris_type": 0,
        "meta_classification_type": "U",
        "meta_norad_cat_id": 40549,
        "meta_element_set_no": 999,
        "meta_rev_at_epoch": 3926,
        "meta_bstar": 0,
        "meta_mean_motion_dot": -1.83e-06,
        "meta_mean_motion_ddot": 0,
        "tle_line1": "1 40549U 15019A   25352.83031053 -.00000183  00000+0  00000+0 0  9999",
        "tle_line2": "2 40549  49.5404 297.6395 0036331 194.0028 349.3621  1.00292047 39264"
      },
      "geometry": {
        "type": "Point",
        "coordinates": [
          153.74903825191066,
          -34.71804769883402
        ]
      }
    },
    {
      "type": "Feature",
      "properties": {
        "norad_id": 40730,
        "name": "GPS BIIF-10 (PRN 08)",
        "group": "gnss",
        "lat": 15.36197628926111,
        "lon": 82.93569290510145,
        "alt_km": 20383.964942919134,
        "timestamp": "2025-12-21T22:41:41.703513+00:00",
        "meta_object_name": "GPS BIIF-10 (PRN 08)",
        "meta_object_id": "2015-033A",
        "meta_epoch": "2025-12-20T05:30:00.269856",
        "meta_mean_motion": 2.0056532,
        "meta_eccentricity": 0.01114012,
        "meta_inclination": 54.1241,
        "meta_ra_of_asc_node": 274.4647,
        "meta_arg_of_pericenter": 26.9904,
        "meta_mean_anomaly": 333.6219,
        "meta_ephemeris_type": 0,
        "meta_classification_type": "U",
        "meta_norad_cat_id": 40730,
        "meta_element_set_no": 999,
        "meta_rev_at_epoch": 7640,
        "meta_bstar": 0,
        "meta_mean_motion_dot": -1.9e-07,
        "meta_mean_motion_ddot": 0,
        "tle_line1": "1 40730U 15033A   25354.22916979 -.00000019  00000+0  00000+0 0  9999",
        "tle_line2": "2 40730  54.1241 274.4647 0111401  26.9904 333.6219  2.00565320 76402"
      },
      "geometry": {
        "type": "Point",
        "coordinates": [
          82.93569290510145,
          15.36197628926111
        ]
      }
    },
    {
      "type": "Feature",
      "properties": {
        "norad_id": 40748,
        "name": "BEIDOU-3S M2S (C58)",
        "group": "gnss",
        "lat": -43.0975658178308,
        "lon": 168.9831420817924,
        "alt_km": 21505.585238266227,
        "timestamp": "2025-12-21T22:41:41.703524+00:00",
        "meta_object_name": "BEIDOU-3S M2S (C58)",
        "meta_object_id": "2015-037A",
        "meta_epoch": "2025-12-21T01:20:10.923072",
        "meta_mean_motion": 1.86229523,
        "meta_eccentricity": 0.00119434,
        "meta_inclination": 55.0313,
        "meta_ra_of_asc_node": 308.1782,
        "meta_arg_of_pericenter": 270.3499,
        "meta_mean_anomaly": 89.5076,
        "meta_ephemeris_type": 0,
        "meta_classification_type": "U",
        "meta_norad_cat_id": 40748,
        "meta_element_set_no": 999,
        "meta_rev_at_epoch": 7080,
        "meta_bstar": 0,
        "meta_mean_motion_dot": -6.4e-07,
        "meta_mean_motion_ddot": 0,
        "tle_line1": "1 40748U 15037A   25355.05568198 -.00000064  00000+0  00000+0 0  9990",
        "tle_line2": "2 40748  55.0313 308.1782 0011943 270.3499  89.5076  1.86229523 70801"
      },
      "geometry": {
        "type": "Point",
        "coordinates": [
          168.9831420817924,
          -43.0975658178308
        ]
      }
    },
    {
      "type": "Feature",
      "properties": {
        "norad_id": 40749,
        "name": "BEIDOU-3S M1S (C57)",
        "group": "gnss",
        "lat": 54.465530867772955,
        "lon": 26.361575942432577,
        "alt_km": 21517.976246867634,
        "timestamp": "2025-12-21T22:41:41.703536+00:00",
        "meta_object_name": "BEIDOU-3S M1S (C57)",
        "meta_object_id": "2015-037B",
        "meta_epoch": "2025-12-21T06:50:01.998240",
        "meta_mean_motion": 1.86253999,
        "meta_eccentricity": 0.00036481,
        "meta_inclination": 55.0276,
        "meta_ra_of_asc_node": 308.16,
        "meta_arg_of_pericenter": 1.485,
        "meta_mean_anomaly": 358.5113,
        "meta_ephemeris_type": 0,
        "meta_classification_type": "U",
        "meta_norad_cat_id": 40749,
        "meta_element_set_no": 999,
        "meta_rev_at_epoch": 7081,
        "meta_bstar": 0,
        "meta_mean_motion_dot": -6.3e-07,
        "meta_mean_motion_ddot": 0,
        "tle_line1": "1 40749U 15037B   25355.28474535 -.00000063  00000+0  00000+0 0  9996",
        "tle_line2": "2 40749  55.0276 308.1600 0003648   1.4850 358.5113  1.86253999 70812"
      },
      "geometry": {
        "type": "Point",
        "coordinates": [
          26.361575942432577,
          54.465530867772955
        ]
      }
    },
    {
      "type": "Feature",
      "properties": {
        "norad_id": 40889,
        "name": "GSAT0205 (GALILEO 9)",
        "group": "gnss",
        "lat": -54.9222346324708,
        "lon": 140.68816523963437,
        "alt_km": 23239.444110101038,
        "timestamp": "2025-12-21T22:41:41.703549+00:00",
        "meta_object_name": "GSAT0205 (GALILEO 9)",
        "meta_object_id": "2015-045A",
        "meta_epoch": "2025-12-20T21:57:55.201536",
        "meta_mean_motion": 1.70473188,
        "meta_eccentricity": 0.00060952,
        "meta_inclination": 55.0008,
        "meta_ra_of_asc_node": 226.5322,
        "meta_arg_of_pericenter": 41.0262,
        "meta_mean_anomaly": 319.1287,
        "meta_ephemeris_type": 0,
        "meta_classification_type": "U",
        "meta_norad_cat_id": 40889,
        "meta_element_set_no": 999,
        "meta_rev_at_epoch": 6397,
        "meta_bstar": 0,
        "meta_mean_motion_dot": 7.2e-07,
        "meta_mean_motion_ddot": 0,
        "tle_line1": "1 40889U 15045A   25354.91522224  .00000072  00000+0  00000+0 0  9997",
        "tle_line2": "2 40889  55.0008 226.5322 0006095  41.0262 319.1287  1.70473188 63971"
      },
      "geometry": {
        "type": "Point",
        "coordinates": [
          140.68816523963437,
          -54.9222346324708
        ]
      }
    },
    {
      "type": "Feature",
      "properties": {
        "norad_id": 40890,
        "name": "GSAT0206 (GALILEO 10)",
        "group": "gnss",
        "lat": 33.90073713697868,
        "lon": 18.437651674840527,
        "alt_km": 23219.032967625244,
        "timestamp": "2025-12-21T22:41:41.703560+00:00",
        "meta_object_name": "GSAT0206 (GALILEO 10)",
        "meta_object_id": "2015-045B",
        "meta_epoch": "2025-12-18T18:56:55.411008",
        "meta_mean_motion": 1.70473154,
        "meta_eccentricity": 0.00042207,
        "meta_inclination": 55.0004,
        "meta_ra_of_asc_node": 226.586,
        "meta_arg_of_pericenter": 42.9195,
        "meta_mean_anomaly": 317.2206,
        "meta_ephemeris_type": 0,
        "meta_classification_type": "U",
        "meta_norad_cat_id": 40890,
        "meta_element_set_no": 999,
        "meta_rev_at_epoch": 6396,
        "meta_bstar": 0,
        "meta_mean_motion_dot": 6.4e-07,
        "meta_mean_motion_ddot": 0,
        "tle_line1": "1 40890U 15045B   25352.78953022  .00000064  00000+0  00000+0 0  9997",
        "tle_line2": "2 40890  55.0004 226.5860 0004220  42.9195 317.2206  1.70473154 63961"
      },
      "geometry": {
        "type": "Point",
        "coordinates": [
          18.437651674840527,
          33.90073713697868
        ]
      }
    }
  ]
}